[{"OBJECT_NAME":"TOMORROW-S3","OBJECT_ID":"2024-247R","EPOCH":"2026-03-09T11:56:51.820800","MEAN_MOTION":15.27672122,"ECCENTRICITY":3.967e-5,"INCLINATION":44.9999,"RA_OF_ASC_NODE":117.9871,"ARG_OF_PERICENTER":320.9462,"MEAN_ANOMALY":39.1392,"EPHEMERIS_TYPE":0,"CLASSIFICATION_TYPE":"U","NORAD_CAT_ID":62392,"ELEMENT_SET_NO":999,"REV_AT_EPOCH":6770,"BSTAR":0.00028857954,"MEAN_MOTION_DOT":7.664e-5,"MEAN_MOTION_DDOT":0},{"OBJECT_NAME":"STARLINK-34190","OBJECT_ID":"2025-107Q","EPOCH":"2026-03-09T09:06:12.331296","MEAN_MOTION":15.27578913,"ECCENTRICITY":0.00017564,"INCLINATION":42.9997,"RA_OF_ASC_NODE":203.2434,"ARG_OF_PERICENTER":280.7177,"MEAN_ANOMALY":79.3477,"EPHEMERIS_TYPE":0,"CLASSIFICATION_TYPE":"U","NORAD_CAT_ID":64078,"ELEMENT_SET_NO":999,"REV_AT_EPOCH":4607,"BSTAR":0.00093171825,"MEAN_MOTION_DOT":0.00025465,"MEAN_MOTION_DDOT":0}]
