TOMORROW-S3             
1 62392U 24247R   26068.49782200  .00007664  00000+0  28858-3 0  9991
2 62392  44.9999 117.9871 0000396 320.9462  39.1392 15.27672122 67708
STARLINK-34190          
1 64078U 25107Q   26068.37930939  .00025465  00000+0  93172-3 0  9991
2 64078  42.9997 203.2434 0001756 280.7177  79.3477 15.27578913 46078
